0 FENGYUN 1C DEB
1 30725U 99025ASK 13281.44944275  .00001700  00000-0  11318-2 0   676
2 30725 099.0926 254.0454 0102800 161.1209 323.6685 14.00029842338343
0 FENGYUN 1C DEB
1 30725U 99025ASK 13282.52117515  .00001804  00000-0  11988-2 0   684
2 30725 099.0928 255.1106 0102880 158.1448 325.3413 14.00037381338491
0 FENGYUN 1C DEB
1 30725U 99025ASK 13283.86629938  .00001775  00000-0  11798-2 0   696
2 30725 099.0930 256.4477 0102972 154.3998 264.9871 14.00042007338687
0 FENGYUN 1C DEB
1 30725U 99025ASK 13286.15356602  .00001786  00000-0  11868-2 0   719
2 30725 099.0937 258.7212 0103132 148.0427 273.2329 14.00049732339002
0 FENGYUN 1C DEB
1 30725U 99025ASK 13288.15455041  .00002317  00000-0  15310-2 0   726
2 30725 099.0945 260.7103 0103230 142.5200 278.5830 14.00059206339282
0 FENGYUN 1C DEB
1 30725U 99025ASK 13289.86956488  .00002032  00000-0  13458-2 0   732
2 30725 099.0952 262.4151 0103344 137.7808 282.6469 14.00066626339523
0 FENGYUN 1C DEB
1 30725U 99025ASK 13291.45434330  .00002032  00000-0  13452-2 0   742
2 30725 099.0957 263.9906 0103473 133.3998 350.3358 14.00072760339747
0 FENGYUN 1C DEB
1 30725U 99025ASK 13292.52669302  .00002118  00000-0  14005-2 0   751
2 30725 099.0961 265.0567 0103524 130.4429 355.2678 14.00076938339898
0 FENGYUN 1C DEB
1 30725U 99025ASK 13293.52957957  .00002222  00000-0  14679-2 0   762
2 30725 099.0963 266.0540 0103587 127.6814 010.0977 14.00081428340033
0 FENGYUN 1C DEB
1 30725U 99025ASK 13295.15788315  .00002290  00000-0  15117-2 0   777
2 30725 099.0966 267.6733 0103695 123.1919 297.2448 14.00088342340263
